[
  {
    "COMMENT": "GENERATED VIA SPACETRACK.ORG API",
    "ORIGINATOR": "18 SPCS",
    "NORAD_CAT_ID": "46984",
    "OBJECT_NAME": "S6 MICHAEL FREILICH",
    "OBJECT_TYPE": "PAYLOAD",
    "CLASSIFICATION_TYPE": "U",
    "INTLDES": "20086A",
    "EPOCH": "2023-04-17 18:44:29",
    "EPOCH_MICROSECONDS": "853312",
    "MEAN_MOTION": "12.80930667",
    "ECCENTRICITY": "0.000807",
    "INCLINATION": "66.0464",
    "RA_OF_ASC_NODE": "16.9283",
    "ARG_OF_PERICENTER": "265.12",
    "MEAN_ANOMALY": "94.8896",
    "EPHEMERIS_TYPE": "0",
    "ELEMENT_SET_NO": "999",
    "REV_AT_EPOCH": "11234",
    "BSTAR": "0",
    "MEAN_MOTION_DOT": "-0.00000061",
    "MEAN_MOTION_DDOT": "0",
    "FILE": "3889391",
    "TLE_LINE0": "0 S6 MICHAEL FREILICH",
    "TLE_LINE1": "1 46984U 20086A   23107.78090108 -.00000061  00000-0  00000-0 0  9991",
    "TLE_LINE2": "2 46984  66.0464  16.9283 0008070 265.1200  94.8896 12.80930667112346",
    "OBJECT_ID": "2020-086A",
    "OBJECT_NUMBER": "46984",
    "SEMIMAJOR_AXIS": "7715.867",
    "PERIOD": "112.418",
    "APOGEE": "1343.959",
    "PERIGEE": "1331.506",
    "DECAYED": "0"
  },
  {
    "COMMENT": "GENERATED VIA SPACETRACK.ORG API",
    "ORIGINATOR": "18 SPCS",
    "NORAD_CAT_ID": "46984",
    "OBJECT_NAME": "S6 MICHAEL FREILICH",
    "OBJECT_TYPE": "PAYLOAD",
    "CLASSIFICATION_TYPE": "U",
    "INTLDES": "20086A",
    "EPOCH": "2023-04-18 02:14:12",
    "EPOCH_MICROSECONDS": "884352",
    "MEAN_MOTION": "12.80930655",
    "ECCENTRICITY": "0.0008056",
    "INCLINATION": "66.0467",
    "RA_OF_ASC_NODE": "16.2799",
    "ARG_OF_PERICENTER": "265.3293",
    "MEAN_ANOMALY": "94.6795",
    "EPHEMERIS_TYPE": "0",
    "ELEMENT_SET_NO": "999",
    "REV_AT_EPOCH": "11238",
    "BSTAR": "0",
    "MEAN_MOTION_DOT": "-0.00000061",
    "MEAN_MOTION_DDOT": "0",
    "FILE": "3889587",
    "TLE_LINE0": "0 S6 MICHAEL FREILICH",
    "TLE_LINE1": "1 46984U 20086A   23108.09320468 -.00000061  00000-0  00000+0 0  9990",
    "TLE_LINE2": "2 46984  66.0467  16.2799 0008056 265.3293  94.6795 12.80930655112389",
    "OBJECT_ID": "2020-086A",
    "OBJECT_NUMBER": "46984",
    "SEMIMAJOR_AXIS": "7715.868",
    "PERIOD": "112.418",
    "APOGEE": "1343.948",
    "PERIGEE": "1331.517",
    "DECAYED": "0"
  },
  {
    "COMMENT": "GENERATED VIA SPACETRACK.ORG API",
    "ORIGINATOR": "18 SPCS",
    "NORAD_CAT_ID": "46984",
    "OBJECT_NAME": "S6 MICHAEL FREILICH",
    "OBJECT_TYPE": "PAYLOAD",
    "CLASSIFICATION_TYPE": "U",
    "INTLDES": "20086A",
    "EPOCH": "2023-04-18 02:14:12",
    "EPOCH_MICROSECONDS": "884352",
    "MEAN_MOTION": "12.80930655",
    "ECCENTRICITY": "0.0008056",
    "INCLINATION": "66.0467",
    "RA_OF_ASC_NODE": "16.2799",
    "ARG_OF_PERICENTER": "265.3293",
    "MEAN_ANOMALY": "94.6795",
    "EPHEMERIS_TYPE": "0",
    "ELEMENT_SET_NO": "999",
    "REV_AT_EPOCH": "11238",
    "BSTAR": "0",
    "MEAN_MOTION_DOT": "-0.00000061",
    "MEAN_MOTION_DDOT": "0",
    "FILE": "3889684",
    "TLE_LINE0": "0 S6 MICHAEL FREILICH",
    "TLE_LINE1": "1 46984U 20086A   23108.09320468 -.00000061  00000-0  00000-0 0  9991",
    "TLE_LINE2": "2 46984  66.0467  16.2799 0008056 265.3293  94.6795 12.80930655112389",
    "OBJECT_ID": "2020-086A",
    "OBJECT_NUMBER": "46984",
    "SEMIMAJOR_AXIS": "7715.868",
    "PERIOD": "112.418",
    "APOGEE": "1343.948",
    "PERIGEE": "1331.517",
    "DECAYED": "0"
  },
  {
    "COMMENT": "GENERATED VIA SPACETRACK.ORG API",
    "ORIGINATOR": "18 SPCS",
    "NORAD_CAT_ID": "46984",
    "OBJECT_NAME": "S6 MICHAEL FREILICH",
    "OBJECT_TYPE": "PAYLOAD",
    "CLASSIFICATION_TYPE": "U",
    "INTLDES": "20086A",
    "EPOCH": "2023-04-19 02:35:47",
    "EPOCH_MICROSECONDS": "764608",
    "MEAN_MOTION": "12.8093067",
    "ECCENTRICITY": "0.0008044",
    "INCLINATION": "66.047",
    "RA_OF_ASC_NODE": "14.1724",
    "ARG_OF_PERICENTER": "265.0033",
    "MEAN_ANOMALY": "95.0065",
    "EPHEMERIS_TYPE": "0",
    "ELEMENT_SET_NO": "999",
    "REV_AT_EPOCH": "11251",
    "BSTAR": "0",
    "MEAN_MOTION_DOT": "-0.00000061",
    "MEAN_MOTION_DDOT": "0",
    "FILE": "3890383",
    "TLE_LINE0": "0 S6 MICHAEL FREILICH",
    "TLE_LINE1": "1 46984U 20086A   23109.10819172 -.00000061  00000-0  00000-0 0  9999",
    "TLE_LINE2": "2 46984  66.0470  14.1724 0008044 265.0033  95.0065 12.80930670112511",
    "OBJECT_ID": "2020-086A",
    "OBJECT_NUMBER": "46984",
    "SEMIMAJOR_AXIS": "7715.867",
    "PERIOD": "112.418",
    "APOGEE": "1343.939",
    "PERIGEE": "1331.526",
    "DECAYED": "0"
  },
  {
    "COMMENT": "GENERATED VIA SPACETRACK.ORG API",
    "ORIGINATOR": "18 SPCS",
    "NORAD_CAT_ID": "46984",
    "OBJECT_NAME": "S6 MICHAEL FREILICH",
    "OBJECT_TYPE": "PAYLOAD",
    "CLASSIFICATION_TYPE": "U",
    "INTLDES": "20086A",
    "EPOCH": "2023-04-20 04:49:48",
    "EPOCH_MICROSECONDS": "387936",
    "MEAN_MOTION": "12.80930695",
    "ECCENTRICITY": "0.0008035",
    "INCLINATION": "66.0472",
    "RA_OF_ASC_NODE": "11.9027",
    "ARG_OF_PERICENTER": "264.826",
    "MEAN_ANOMALY": "95.1838",
    "EPHEMERIS_TYPE": "0",
    "ELEMENT_SET_NO": "999",
    "REV_AT_EPOCH": "11265",
    "BSTAR": "0",
    "MEAN_MOTION_DOT": "-0.00000061",
    "MEAN_MOTION_DDOT": "0",
    "FILE": "3890827",
    "TLE_LINE0": "0 S6 MICHAEL FREILICH",
    "TLE_LINE1": "1 46984U 20086A   23110.20125449 -.00000061  00000-0  00000-0 0  9999",
    "TLE_LINE2": "2 46984  66.0472  11.9027 0008035 264.8260  95.1838 12.80930695112654",
    "OBJECT_ID": "2020-086A",
    "OBJECT_NUMBER": "46984",
    "SEMIMAJOR_AXIS": "7715.867",
    "PERIOD": "112.418",
    "APOGEE": "1343.932",
    "PERIGEE": "1331.533",
    "DECAYED": "0"
  },
  {
    "COMMENT": "GENERATED VIA SPACETRACK.ORG API",
    "ORIGINATOR": "18 SPCS",
    "NORAD_CAT_ID": "46984",
    "OBJECT_NAME": "S6 MICHAEL FREILICH",
    "OBJECT_TYPE": "PAYLOAD",
    "CLASSIFICATION_TYPE": "U",
    "INTLDES": "20086A",
    "EPOCH": "2023-04-21 10:48:40",
    "EPOCH_MICROSECONDS": "519872",
    "MEAN_MOTION": "12.80930733",
    "ECCENTRICITY": "0.0008031",
    "INCLINATION": "66.0473",
    "RA_OF_ASC_NODE": "9.3089",
    "ARG_OF_PERICENTER": "264.6234",
    "MEAN_ANOMALY": "95.3865",
    "EPHEMERIS_TYPE": "0",
    "ELEMENT_SET_NO": "999",
    "REV_AT_EPOCH": "11281",
    "BSTAR": "0",
    "MEAN_MOTION_DOT": "-0.00000061",
    "MEAN_MOTION_DDOT": "0",
    "FILE": "3891454",
    "TLE_LINE0": "0 S6 MICHAEL FREILICH",
    "TLE_LINE1": "1 46984U 20086A   23111.45046898 -.00000061  00000-0  00000+0 0  9996",
    "TLE_LINE2": "2 46984  66.0473   9.3089 0008031 264.6234  95.3865 12.80930733112812",
    "OBJECT_ID": "2020-086A",
    "OBJECT_NUMBER": "46984",
    "SEMIMAJOR_AXIS": "7715.867",
    "PERIOD": "112.418",
    "APOGEE": "1343.929",
    "PERIGEE": "1331.536",
    "DECAYED": "0"
  },
  {
    "COMMENT": "GENERATED VIA SPACETRACK.ORG API",
    "ORIGINATOR": "18 SPCS",
    "NORAD_CAT_ID": "46984",
    "OBJECT_NAME": "S6 MICHAEL FREILICH",
    "OBJECT_TYPE": "PAYLOAD",
    "CLASSIFICATION_TYPE": "U",
    "INTLDES": "20086A",
    "EPOCH": "2023-04-21 10:48:40",
    "EPOCH_MICROSECONDS": "519872",
    "MEAN_MOTION": "12.80930733",
    "ECCENTRICITY": "0.0008031",
    "INCLINATION": "66.0473",
    "RA_OF_ASC_NODE": "9.3089",
    "ARG_OF_PERICENTER": "264.6234",
    "MEAN_ANOMALY": "95.3865",
    "EPHEMERIS_TYPE": "0",
    "ELEMENT_SET_NO": "999",
    "REV_AT_EPOCH": "11281",
    "BSTAR": "0",
    "MEAN_MOTION_DOT": "-0.00000061",
    "MEAN_MOTION_DDOT": "0",
    "FILE": "3891529",
    "TLE_LINE0": "0 S6 MICHAEL FREILICH",
    "TLE_LINE1": "1 46984U 20086A   23111.45046898 -.00000061  00000-0  00000-0 0  9997",
    "TLE_LINE2": "2 46984  66.0473   9.3089 0008031 264.6234  95.3865 12.80930733112812",
    "OBJECT_ID": "2020-086A",
    "OBJECT_NUMBER": "46984",
    "SEMIMAJOR_AXIS": "7715.867",
    "PERIOD": "112.418",
    "APOGEE": "1343.929",
    "PERIGEE": "1331.536",
    "DECAYED": "0"
  },
  {
    "COMMENT": "GENERATED VIA SPACETRACK.ORG API",
    "ORIGINATOR": "18 SPCS",
    "NORAD_CAT_ID": "46984",
    "OBJECT_NAME": "S6 MICHAEL FREILICH",
    "OBJECT_TYPE": "PAYLOAD",
    "CLASSIFICATION_TYPE": "U",
    "INTLDES": "20086A",
    "EPOCH": "2023-04-22 01:48:06",
    "EPOCH_MICROSECONDS": "590592",
    "MEAN_MOTION": "12.80930698",
    "ECCENTRICITY": "0.000805",
    "INCLINATION": "66.0467",
    "RA_OF_ASC_NODE": "8.0113",
    "ARG_OF_PERICENTER": "264.6942",
    "MEAN_ANOMALY": "95.3155",
    "EPHEMERIS_TYPE": "0",
    "ELEMENT_SET_NO": "999",
    "REV_AT_EPOCH": "11289",
    "BSTAR": "0",
    "MEAN_MOTION_DOT": "-0.00000061",
    "MEAN_MOTION_DDOT": "0",
    "FILE": "3892071",
    "TLE_LINE0": "0 S6 MICHAEL FREILICH",
    "TLE_LINE1": "1 46984U 20086A   23112.07507628 -.00000061  00000-0  00000-0 0  9999",
    "TLE_LINE2": "2 46984  66.0467   8.0113 0008050 264.6942  95.3155 12.80930698112896",
    "OBJECT_ID": "2020-086A",
    "OBJECT_NUMBER": "46984",
    "SEMIMAJOR_AXIS": "7715.867",
    "PERIOD": "112.418",
    "APOGEE": "1343.944",
    "PERIGEE": "1331.521",
    "DECAYED": "0"
  }
]